0 COSMOS 1818 COOLANT
1 34176U 87011G   13283.33423751  .00000320  00000-0  15499-3 0  3533
2 34176 065.0161 258.9798 0021294 259.5489 100.3233 14.32336220264213
0 COSMOS 1818 COOLANT
1 34176U 87011G   13287.24420387  .00000361  00000-0  17024-3 0  3541
2 34176 065.0143 248.0174 0020934 260.6520 099.2311 14.32340676264774
0 COSMOS 1818 COOLANT
1 34176U 87011G   13289.26900128  .00000383  00000-0  17811-3 0  3550
2 34176 065.0179 242.3454 0021502 260.3179 099.5610 14.32343303265068
0 COSMOS 1818 COOLANT
1 34176U 87011G   13291.22397201  .00000434  00000-0  19672-3 0  3566
2 34176 065.0166 236.8588 0021579 260.4927 099.3919 14.32346566265341
0 COSMOS 1818 COOLANT
1 34176U 87011G   13293.45822042  .00000497  00000-0  22011-3 0  3570
2 34176 065.0126 230.5825 0021895 261.9405 097.9468 14.32350306265665
0 COSMOS 1818 COOLANT
1 34176U 87011G   13296.18119914  .00000544  00000-0  23740-3 0  3584
2 34176 065.0120 222.9488 0021313 261.2245 098.6467 14.32354740266056
